IRIDIUM 112             
1 41925U 17003J   25126.87146183  .00000125  00000+0  37452-4 0  9998
2 41925  86.3948 258.0351 0002080  91.6191 268.5243 14.34217157435065
IRIDIUM 111             
1 41926U 17003K   25126.64947107  .00000374  00000+0  12642-3 0  9998
2 41926  86.3950 258.1896 0002180  98.6116 261.5327 14.34220189434984
IRIDIUM 113             
1 42803U 17039A   25127.04804572  .00000057  00000+0  13266-4 0  9997
2 42803  86.3949 131.9534 0002087  86.5555 273.5879 14.34217793412970
IRIDIUM 123             
1 42804U 17039B   25127.15929360  .00000001  00000+0 -65603-5 0  9996
2 42804  86.3999 163.3516 0002253 102.4608 257.6840 14.34217783411752
IRIDIUM 120             
1 42805U 17039C   25127.46031042  .00000289  00000+0  95958-4 0  9994
2 42805  86.3938 131.6161 0002637  95.1216 265.0280 14.34217443413025
IRIDIUM 115             
1 42806U 17039D   25127.46383319  .00000257  00000+0  70491-4 0  9992
2 42806  86.4475 131.6876 0002480 108.2212 251.9259 14.43280428415748
IRIDIUM 118             
1 42807U 17039E   25127.47008121  .00000009  00000+0 -37366-5 0  9990
2 42807  86.3997 163.2217 0002164  91.0404 269.1039 14.34217272411805
IRIDIUM 117             
1 42808U 17039F   25127.48910832 -.00000032  00000+0 -18358-4 0  9999
2 42808  86.3997 163.1752 0002062 100.3373 259.8056 14.34217460411832
